[{"OBJECT_NAME":"NINGXIA-1 3","OBJECT_ID":"2019-076C","EPOCH":"2026-03-09T23:01:21.931104","MEAN_MOTION":14.02037323,"ECCENTRICITY":0.00099226,"INCLINATION":44.9997,"RA_OF_ASC_NODE":261.8703,"ARG_OF_PERICENTER":34.5677,"MEAN_ANOMALY":325.58,"EPHEMERIS_TYPE":0,"CLASSIFICATION_TYPE":"U","NORAD_CAT_ID":44781,"ELEMENT_SET_NO":999,"REV_AT_EPOCH":32393,"BSTAR":9.6124184e-5,"MEAN_MOTION_DOT":1.8e-7,"MEAN_MOTION_DDOT":0},{"OBJECT_NAME":"FENGYUN 1C DEB","OBJECT_ID":"1999-025DVY","EPOCH":"2026-03-08T23:37:44.442624","MEAN_MOTION":14.33891133,"ECCENTRICITY":0.01868159,"INCLINATION":98.2663,"RA_OF_ASC_NODE":82.2968,"ARG_OF_PERICENTER":135.7262,"MEAN_ANOMALY":225.9042,"EPHEMERIS_TYPE":0,"CLASSIFICATION_TYPE":"U","NORAD_CAT_ID":36247,"ELEMENT_SET_NO":999,"REV_AT_EPOCH":71498,"BSTAR":0.00043261285,"MEAN_MOTION_DOT":1.421e-5,"MEAN_MOTION_DDOT":0}]
